SL-16 R/B               
1 25400U 98043G   25343.57081075  .00000173  00000+0  91600-4 0  9995
2 25400  98.8119 291.3712 0008810 277.0903  82.9275 14.26024451426148
SL-16 R/B               
1 25407U 98045B   25344.15125448 -.00000180  00000+0 -66754-4 0  9994
2 25407  71.0121   9.8708 0007062 181.8394 178.2705 14.16175604414423
ISS (ZARYA)             
1 25544U 98067A   25343.89682520  .00014877  00000+0  27325-3 0  9995
2 25544  51.6313 156.5563 0003347 226.2924 133.7787 15.49459040542419
CZ-4B R/B               
1 25732U 99025C   25344.13934882  .00000106  00000+0  72119-4 0  9990
2 25732  98.6772  25.4775 0036217 241.6699 181.9693 14.18242543375473
OKEAN-O                 
1 25860U 99039A   25344.15311760  .00001188  00000+0  16338-3 0  9994
2 25860  97.9605  39.8771 0000791  92.7528 267.3774 14.80153992421144
SL-16 R/B               
1 25861U 99039B   25344.15068433  .00000990  00000+0  13277-3 0  9990
2 25861  98.0128  38.3016 0014724 183.0691 177.0433 14.81580429423601
DELTA 2 R/B             
1 25876U 99041E   25344.09364384  .00001401  00000+0  26521-3 0  9990
2 25876  51.7617 299.0089 0504741  83.9667 281.8523 14.11389811350378
HELIOS 1B               
1 25977U 99064A   25344.17964275  .00003105  00000+0  35087-3 0  9991
2 25977  98.1752 238.7693 0001862  46.6377 313.4993 14.87264765671952
TERRA                   
1 25994U 99068A   25344.12510352  .00000695  00000+0  15107-3 0  9994
2 25994  97.9752  35.9055 0003585  99.4904 288.3258 14.60896949382008
SL-16 R/B               
1 26070U 00006B   25344.14343478 -.00000005  00000+0  21670-4 0  9998
2 26070  71.0033 286.1160 0018386 312.2179  47.7383 14.15810652335888
TITAN 4B R/B            
1 26474U 00047B   25344.15759502  .00005228  00000+0  33463-3 0  9994
2 26474  67.9903 292.1068 0039111 147.6568 212.6991 15.08748743379409
ENVISAT                 
1 27386U 02009A   25343.84051390  .00000274  00000+0  10275-3 0  9994
2 27386  98.3595 294.6546 0001138  82.2120 310.2641 14.38997695246258
