CCSDS_OMM_VERS = 2.0
CREATION_DATE  = 
ORIGINATOR     = 

OBJECT_NAME    = SL-16 R/B
OBJECT_ID      = 1998-043G
CENTER_NAME    = EARTH
REF_FRAME      = TEME
TIME_SYSTEM    = UTC
MEAN_ELEMENT_THEORY = SGP/SGP4

EPOCH          = 2025-12-09T13:41:58.048800
MEAN_MOTION    = 14.26024451
ECCENTRICITY   = .000881
INCLINATION    = 98.8119
RA_OF_ASC_NODE = 291.3712
ARG_OF_PERICENTER = 277.0903
MEAN_ANOMALY   = 82.9275

EPHEMERIS_TYPE = 0
CLASSIFICATION_TYPE = U
NORAD_CAT_ID   = 25400
ELEMENT_SET_NO = 999
REV_AT_EPOCH   = 42614
BSTAR          = .916E-4
MEAN_MOTION_DOT = .173E-5
MEAN_MOTION_DDOT = 0

CCSDS_OMM_VERS = 2.0
CREATION_DATE  = 
ORIGINATOR     = 

OBJECT_NAME    = SL-16 R/B
OBJECT_ID      = 1998-045B
CENTER_NAME    = EARTH
REF_FRAME      = TEME
TIME_SYSTEM    = UTC
MEAN_ELEMENT_THEORY = SGP/SGP4

EPOCH          = 2025-12-10T03:37:48.387072
MEAN_MOTION    = 14.16175604
ECCENTRICITY   = .0007062
INCLINATION    = 71.0121
RA_OF_ASC_NODE = 9.8708
ARG_OF_PERICENTER = 181.8394
MEAN_ANOMALY   = 178.2705

EPHEMERIS_TYPE = 0
CLASSIFICATION_TYPE = U
NORAD_CAT_ID   = 25407
ELEMENT_SET_NO = 999
REV_AT_EPOCH   = 41442
BSTAR          = -.66754E-4
MEAN_MOTION_DOT = -.18E-5
MEAN_MOTION_DDOT = 0

CCSDS_OMM_VERS = 2.0
CREATION_DATE  = 
ORIGINATOR     = 

OBJECT_NAME    = ISS (ZARYA)
OBJECT_ID      = 1998-067A
CENTER_NAME    = EARTH
REF_FRAME      = TEME
TIME_SYSTEM    = UTC
MEAN_ELEMENT_THEORY = SGP/SGP4

EPOCH          = 2025-12-09T21:31:25.697280
MEAN_MOTION    = 15.49459040
ECCENTRICITY   = .0003347
INCLINATION    = 51.6313
RA_OF_ASC_NODE = 156.5563
ARG_OF_PERICENTER = 226.2924
MEAN_ANOMALY   = 133.7787

EPHEMERIS_TYPE = 0
CLASSIFICATION_TYPE = U
NORAD_CAT_ID   = 25544
ELEMENT_SET_NO = 999
REV_AT_EPOCH   = 54241
BSTAR          = .27325E-3
MEAN_MOTION_DOT = .14877E-3
MEAN_MOTION_DDOT = 0

CCSDS_OMM_VERS = 2.0
CREATION_DATE  = 
ORIGINATOR     = 

OBJECT_NAME    = CZ-4B R/B
OBJECT_ID      = 1999-025C
CENTER_NAME    = EARTH
REF_FRAME      = TEME
TIME_SYSTEM    = UTC
MEAN_ELEMENT_THEORY = SGP/SGP4

EPOCH          = 2025-12-10T03:20:39.738048
MEAN_MOTION    = 14.18242543
ECCENTRICITY   = .0036217
INCLINATION    = 98.6772
RA_OF_ASC_NODE = 25.4775
ARG_OF_PERICENTER = 241.6699
MEAN_ANOMALY   = 181.9693

EPHEMERIS_TYPE = 0
CLASSIFICATION_TYPE = U
NORAD_CAT_ID   = 25732
ELEMENT_SET_NO = 999
REV_AT_EPOCH   = 37547
BSTAR          = .72119E-4
MEAN_MOTION_DOT = .106E-5
MEAN_MOTION_DDOT = 0

CCSDS_OMM_VERS = 2.0
CREATION_DATE  = 
ORIGINATOR     = 

OBJECT_NAME    = OKEAN-O
OBJECT_ID      = 1999-039A
CENTER_NAME    = EARTH
REF_FRAME      = TEME
TIME_SYSTEM    = UTC
MEAN_ELEMENT_THEORY = SGP/SGP4

EPOCH          = 2025-12-10T03:40:29.360640
MEAN_MOTION    = 14.80153992
ECCENTRICITY   = .0000791
INCLINATION    = 97.9605
RA_OF_ASC_NODE = 39.8771
ARG_OF_PERICENTER = 92.7528
MEAN_ANOMALY   = 267.3774

EPHEMERIS_TYPE = 0
CLASSIFICATION_TYPE = U
NORAD_CAT_ID   = 25860
ELEMENT_SET_NO = 999
REV_AT_EPOCH   = 42114
BSTAR          = .16338E-3
MEAN_MOTION_DOT = .1188E-4
MEAN_MOTION_DDOT = 0

CCSDS_OMM_VERS = 2.0
CREATION_DATE  = 
ORIGINATOR     = 

OBJECT_NAME    = SL-16 R/B
OBJECT_ID      = 1999-039B
CENTER_NAME    = EARTH
REF_FRAME      = TEME
TIME_SYSTEM    = UTC
MEAN_ELEMENT_THEORY = SGP/SGP4

EPOCH          = 2025-12-10T03:36:59.126112
MEAN_MOTION    = 14.81580429
ECCENTRICITY   = .0014724
INCLINATION    = 98.0128
RA_OF_ASC_NODE = 38.3016
ARG_OF_PERICENTER = 183.0691
MEAN_ANOMALY   = 177.0433

EPHEMERIS_TYPE = 0
CLASSIFICATION_TYPE = U
NORAD_CAT_ID   = 25861
ELEMENT_SET_NO = 999
REV_AT_EPOCH   = 42360
BSTAR          = .13277E-3
MEAN_MOTION_DOT = .99E-5
MEAN_MOTION_DDOT = 0

CCSDS_OMM_VERS = 2.0
CREATION_DATE  = 
ORIGINATOR     = 

OBJECT_NAME    = DELTA 2 R/B
OBJECT_ID      = 1999-041E
CENTER_NAME    = EARTH
REF_FRAME      = TEME
TIME_SYSTEM    = UTC
MEAN_ELEMENT_THEORY = SGP/SGP4

EPOCH          = 2025-12-10T02:14:50.827776
MEAN_MOTION    = 14.11389811
ECCENTRICITY   = .0504741
INCLINATION    = 51.7617
RA_OF_ASC_NODE = 299.0089
ARG_OF_PERICENTER = 83.9667
MEAN_ANOMALY   = 281.8523

EPHEMERIS_TYPE = 0
CLASSIFICATION_TYPE = U
NORAD_CAT_ID   = 25876
ELEMENT_SET_NO = 999
REV_AT_EPOCH   = 35037
BSTAR          = .26521E-3
MEAN_MOTION_DOT = .1401E-4
MEAN_MOTION_DDOT = 0

CCSDS_OMM_VERS = 2.0
CREATION_DATE  = 
ORIGINATOR     = 

OBJECT_NAME    = HELIOS 1B
OBJECT_ID      = 1999-064A
CENTER_NAME    = EARTH
REF_FRAME      = TEME
TIME_SYSTEM    = UTC
MEAN_ELEMENT_THEORY = SGP/SGP4

EPOCH          = 2025-12-10T04:18:41.133600
MEAN_MOTION    = 14.87264765
ECCENTRICITY   = .0001862
INCLINATION    = 98.1752
RA_OF_ASC_NODE = 238.7693
ARG_OF_PERICENTER = 46.6377
MEAN_ANOMALY   = 313.4993

EPHEMERIS_TYPE = 0
CLASSIFICATION_TYPE = U
NORAD_CAT_ID   = 25977
ELEMENT_SET_NO = 999
REV_AT_EPOCH   = 67195
BSTAR          = .35087E-3
MEAN_MOTION_DOT = .3105E-4
MEAN_MOTION_DDOT = 0

CCSDS_OMM_VERS = 2.0
CREATION_DATE  = 
ORIGINATOR     = 

OBJECT_NAME    = TERRA
OBJECT_ID      = 1999-068A
CENTER_NAME    = EARTH
REF_FRAME      = TEME
TIME_SYSTEM    = UTC
MEAN_ELEMENT_THEORY = SGP/SGP4

EPOCH          = 2025-12-10T03:00:08.944128
MEAN_MOTION    = 14.60896949
ECCENTRICITY   = .0003585
INCLINATION    = 97.9752
RA_OF_ASC_NODE = 35.9055
ARG_OF_PERICENTER = 99.4904
MEAN_ANOMALY   = 288.3258

EPHEMERIS_TYPE = 0
CLASSIFICATION_TYPE = U
NORAD_CAT_ID   = 25994
ELEMENT_SET_NO = 999
REV_AT_EPOCH   = 38200
BSTAR          = .15107E-3
MEAN_MOTION_DOT = .695E-5
MEAN_MOTION_DDOT = 0

CCSDS_OMM_VERS = 2.0
CREATION_DATE  = 
ORIGINATOR     = 

OBJECT_NAME    = SL-16 R/B
OBJECT_ID      = 2000-006B
CENTER_NAME    = EARTH
REF_FRAME      = TEME
TIME_SYSTEM    = UTC
MEAN_ELEMENT_THEORY = SGP/SGP4

EPOCH          = 2025-12-10T03:26:32.764992
MEAN_MOTION    = 14.15810652
ECCENTRICITY   = .0018386
INCLINATION    = 71.0033
RA_OF_ASC_NODE = 286.1160
ARG_OF_PERICENTER = 312.2179
MEAN_ANOMALY   = 47.7383

EPHEMERIS_TYPE = 0
CLASSIFICATION_TYPE = U
NORAD_CAT_ID   = 26070
ELEMENT_SET_NO = 999
REV_AT_EPOCH   = 33588
BSTAR          = .2167E-4
MEAN_MOTION_DOT = -.5E-7
MEAN_MOTION_DDOT = 0

CCSDS_OMM_VERS = 2.0
CREATION_DATE  = 
ORIGINATOR     = 

OBJECT_NAME    = TITAN 4B R/B
OBJECT_ID      = 2000-047B
CENTER_NAME    = EARTH
REF_FRAME      = TEME
TIME_SYSTEM    = UTC
MEAN_ELEMENT_THEORY = SGP/SGP4

EPOCH          = 2025-12-10T03:46:56.209728
MEAN_MOTION    = 15.08748743
ECCENTRICITY   = .0039111
INCLINATION    = 67.9903
RA_OF_ASC_NODE = 292.1068
ARG_OF_PERICENTER = 147.6568
MEAN_ANOMALY   = 212.6991

EPHEMERIS_TYPE = 0
CLASSIFICATION_TYPE = U
NORAD_CAT_ID   = 26474
ELEMENT_SET_NO = 999
REV_AT_EPOCH   = 37940
BSTAR          = .33463E-3
MEAN_MOTION_DOT = .5228E-4
MEAN_MOTION_DDOT = 0

CCSDS_OMM_VERS = 2.0
CREATION_DATE  = 
ORIGINATOR     = 

OBJECT_NAME    = ENVISAT
OBJECT_ID      = 2002-009A
CENTER_NAME    = EARTH
REF_FRAME      = TEME
TIME_SYSTEM    = UTC
MEAN_ELEMENT_THEORY = SGP/SGP4

EPOCH          = 2025-12-09T20:10:20.400960
MEAN_MOTION    = 14.38997695
ECCENTRICITY   = .0001138
INCLINATION    = 98.3595
RA_OF_ASC_NODE = 294.6546
ARG_OF_PERICENTER = 82.2120
MEAN_ANOMALY   = 310.2641

EPHEMERIS_TYPE = 0
CLASSIFICATION_TYPE = U
NORAD_CAT_ID   = 27386
ELEMENT_SET_NO = 999
REV_AT_EPOCH   = 24625
BSTAR          = .10275E-3
MEAN_MOTION_DOT = .274E-5
MEAN_MOTION_DDOT = 0

